start=new Date('2022-11-12T00:00:00.000Z').valueOf();
sats=[{"MEAN_MOTION_DOT":"0.00000284","LAUNCH_DATE":"2022-01-06","TLE_LINE2":"2 50846  53.2166 229.6266 0001889  39.1006 321.0122 15.08835609 46978","REV_AT_EPOCH":"4697","EPOCH":"2022-11-11T13:07:43.999392","MEAN_MOTION_DDOT":"0.0000000000000","SEMIMAJOR_AXIS":"6917.894","CLASSIFICATION_TYPE":"U","REF_FRAME":"TEME","OBJECT_TYPE":"PAYLOAD","OBJECT_ID":"2022-001AV","ARG_OF_PERICENTER":"39.1006","APOAPSIS":"541.066","SITE":"AFETR","PERIAPSIS":"538.452","TIME_SYSTEM":"UTC","MEAN_MOTION":"15.08835609","FILE":"3651775","BSTAR":"0.00003593600000","GP_ID":"217492762","NORAD_CAT_ID":"50846","DECAY_DATE":null,"INCLINATION":"53.2166","COUNTRY_CODE":"US","PERIOD":"95.438","MEAN_ANOMALY":"321.0122","ELEMENT_SET_NO":"999","EPHEMERIS_TYPE":"0","CENTER_NAME":"EARTH","RA_OF_ASC_NODE":"229.6266","ECCENTRICITY":"0.00018890","RCS_SIZE":"LARGE","TLE_LINE1":"1 50846U 22001AV  22315.54703703  .00000284  00000-0  35936-4 0  9994","MEAN_ELEMENT_THEORY":"SGP4","OBJECT_NAME":"STARLINK-3308"},{"TLE_LINE2":"2 50847  53.2155 228.0063 0002343  67.1023 293.0217 15.08845649 47026","REV_AT_EPOCH":"4702","LAUNCH_DATE":"2022-01-06","MEAN_MOTION_DOT":"0.00005002","OBJECT_TYPE":"PAYLOAD","OBJECT_ID":"2022-001AW","ARG_OF_PERICENTER":"67.1023","SITE":"AFETR","APOAPSIS":"541.349","MEAN_MOTION_DDOT":"0.0000000000000","SEMIMAJOR_AXIS":"6917.863","EPOCH":"2022-11-11T21:41:44.031840","REF_FRAME":"TEME","CLASSIFICATION_TYPE":"U","GP_ID":"217493008","NORAD_CAT_ID":"50847","COUNTRY_CODE":"US","DECAY_DATE":null,"INCLINATION":"53.2155","PERIAPSIS":"538.107","TIME_SYSTEM":"UTC","MEAN_MOTION":"15.08845649","BSTAR":"0.00033210000000","FILE":"3651775","RCS_SIZE":"LARGE","ECCENTRICITY":"0.00023430","RA_OF_ASC_NODE":"228.0063","OBJECT_NAME":"STARLINK-3319","TLE_LINE1":"1 50847U 22001AW  22315.90398185  .00005002  00000-0  33210-3 0  9994","MEAN_ELEMENT_THEORY":"SGP4","ELEMENT_SET_NO":"999","PERIOD":"95.437","MEAN_ANOMALY":"293.0217","EPHEMERIS_TYPE":"0","CENTER_NAME":"EARTH"},{"NORAD_CAT_ID":"50848","GP_ID":"217493764","COUNTRY_CODE":"US","INCLINATION":"53.2154","DECAY_DATE":null,"MEAN_MOTION":"15.08829145","PERIAPSIS":"537.990","TIME_SYSTEM":"UTC","BSTAR":"0.00016051000000","FILE":"3651775","RCS_SIZE":"LARGE","RA_OF_ASC_NODE":"228.4569","ECCENTRICITY":"0.00025850","OBJECT_NAME":"STARLINK-3315","TLE_LINE1":"1 50848U 22001AX  22315.80833112  .00002266  00000-0  16051-3 0  9991","MEAN_ELEMENT_THEORY":"SGP4","ELEMENT_SET_NO":"999","MEAN_ANOMALY":"327.3056","PERIOD":"95.438","EPHEMERIS_TYPE":"0","CENTER_NAME":"EARTH","TLE_LINE2":"2 50848  53.2154 228.4569 0002585  32.8096 327.3056 15.08829145 47012","REV_AT_EPOCH":"4701","LAUNCH_DATE":"2022-01-06","MEAN_MOTION_DOT":"0.00002266","OBJECT_ID":"2022-001AX","ARG_OF_PERICENTER":"32.8096","OBJECT_TYPE":"PAYLOAD","SITE":"AFETR","APOAPSIS":"541.567","SEMIMAJOR_AXIS":"6917.914","MEAN_MOTION_DDOT":"0.0000000000000","EPOCH":"2022-11-11T19:23:59.808768","REF_FRAME":"TEME","CLASSIFICATION_TYPE":"U"},{"EPOCH":"2022-11-11T18:04:29.682912","MEAN_MOTION_DDOT":"0.0000000000000","SEMIMAJOR_AXIS":"6917.888","CLASSIFICATION_TYPE":"U","REF_FRAME":"TEME","OBJECT_TYPE":"PAYLOAD","ARG_OF_PERICENTER":"31.8808","OBJECT_ID":"2022-001AY","APOAPSIS":"541.175","SITE":"AFETR","MEAN_MOTION_DOT":"0.00007818","LAUNCH_DATE":"2022-01-06","TLE_LINE2":"2 50849  53.2158 228.7064 0002055  31.8808 328.2308 15.08837388 47009","REV_AT_EPOCH":"4700","PERIOD":"95.438","MEAN_ANOMALY":"328.2308","ELEMENT_SET_NO":"999","CENTER_NAME":"EARTH","EPHEMERIS_TYPE":"0","RA_OF_ASC_NODE":"228.7064","ECCENTRICITY":"0.00020550","RCS_SIZE":"LARGE","TLE_LINE1":"1 50849U 22001AY  22315.75312133  .00007818  00000-0  50876-3 0  9992","MEAN_ELEMENT_THEORY":"SGP4","OBJECT_NAME":"STARLINK-3311","PERIAPSIS":"538.332","TIME_SYSTEM":"UTC","MEAN_MOTION":"15.08837388","BSTAR":"0.00050876000000","FILE":"3651775","GP_ID":"217493483","NORAD_CAT_ID":"50849","INCLINATION":"53.2158","DECAY_DATE":null,"COUNTRY_CODE":"US"},{"SITE":"AFETR","APOAPSIS":"541.379","OBJECT_TYPE":"PAYLOAD","OBJECT_ID":"2022-001AZ","ARG_OF_PERICENTER":"39.7650","REF_FRAME":"TEME","CLASSIFICATION_TYPE":"U","MEAN_MOTION_DDOT":"0.0000000000000","SEMIMAJOR_AXIS":"6917.963","EPOCH":"2022-11-11T21:20:36.305376","REV_AT_EPOCH":"4812","TLE_LINE2":"2 50850  53.2181 188.0829 0002243  39.7650 320.3506 15.08813129 48129","LAUNCH_DATE":"2022-01-06","MEAN_MOTION_DOT":"0.00005144","OBJECT_NAME":"STARLINK-3312","MEAN_ELEMENT_THEORY":"SGP4","TLE_LINE1":"1 50850U 22001AZ  22315.88930909  .00005144  00000-0  34130-3 0  9990","RCS_SIZE":"LARGE","ECCENTRICITY":"0.00022430","RA_OF_ASC_NODE":"188.0829","EPHEMERIS_TYPE":"0","CENTER_NAME":"EARTH","ELEMENT_SET_NO":"999","PERIOD":"95.439","MEAN_ANOMALY":"320.3506","COUNTRY_CODE":"US","DECAY_DATE":null,"INCLINATION":"53.2181","GP_ID":"217492263","NORAD_CAT_ID":"50850","BSTAR":"0.00034130000000","FILE":"3651775","TIME_SYSTEM":"UTC","PERIAPSIS":"538.276","MEAN_MOTION":"15.08813129"},{"RA_OF_ASC_NODE":"231.1499","ECCENTRICITY":"0.00028150","RCS_SIZE":"LARGE","MEAN_ELEMENT_THEORY":"SGP4","TLE_LINE1":"1 50851U 22001BA  22315.20848142  .00001993  00000-0  14331-3 0  9993","OBJECT_NAME":"STARLINK-3314","MEAN_ANOMALY":"334.5111","PERIOD":"95.438","ELEMENT_SET_NO":"999","EPHEMERIS_TYPE":"0","CENTER_NAME":"EARTH","NORAD_CAT_ID":"50851","GP_ID":"217434695","INCLINATION":"53.2164","DECAY_DATE":null,"COUNTRY_CODE":"US","PERIAPSIS":"537.806","MEAN_MOTION":"15.08837477","TIME_SYSTEM":"UTC","FILE":"3651496","BSTAR":"0.00014331000000","ARG_OF_PERICENTER":"25.6020","OBJECT_ID":"2022-001BA","OBJECT_TYPE":"PAYLOAD","APOAPSIS":"541.700","SITE":"AFETR","EPOCH":"2022-11-11T05:00:12.794688","SEMIMAJOR_AXIS":"6917.888","MEAN_MOTION_DDOT":"0.0000000000000","CLASSIFICATION_TYPE":"U","REF_FRAME":"TEME","TLE_LINE2":"2 50851  53.2164 231.1499 0002815  25.6020 334.5111 15.08837477 46921","REV_AT_EPOCH":"4692","MEAN_MOTION_DOT":"0.00001993","LAUNCH_DATE":"2022-01-06"},{"OBJECT_NAME":"STARLINK-3366","TLE_LINE1":"1 51104U 22005A   22315.49278023  .00006475  00000-0  42472-3 0  9992","MEAN_ELEMENT_THEORY":"SGP4","RCS_SIZE":"LARGE","ECCENTRICITY":"0.00025120","RA_OF_ASC_NODE":"339.8644","CENTER_NAME":"EARTH","EPHEMERIS_TYPE":"0","ELEMENT_SET_NO":"999","MEAN_ANOMALY":"333.6667","PERIOD":"95.439","COUNTRY_CODE":"US","DECAY_DATE":null,"INCLINATION":"53.2181","NORAD_CAT_ID":"51104","GP_ID":"217435463","FILE":"3651496","BSTAR":"0.00042472000000","PERIAPSIS":"538.062","TIME_SYSTEM":"UTC","MEAN_MOTION":"15.08822250","SITE":"AFETR","APOAPSIS":"541.537","OBJECT_ID":"2022-005A","ARG_OF_PERICENTER":"26.4453","OBJECT_TYPE":"PAYLOAD","REF_FRAME":"TEME","CLASSIFICATION_TYPE":"U","SEMIMAJOR_AXIS":"6917.935","MEAN_MOTION_DDOT":"0.0000000000000","EPOCH":"2022-11-11T11:49:36.211872","REV_AT_EPOCH":"4557","TLE_LINE2":"2 51104  53.2181 339.8644 0002512  26.4453 333.6667 15.08822250 45572","LAUNCH_DATE":"2022-01-19","MEAN_MOTION_DOT":"0.00006475"},{"EPHEMERIS_TYPE":"0","CENTER_NAME":"EARTH","ELEMENT_SET_NO":"999","MEAN_ANOMALY":"314.8310","PERIOD":"95.437","OBJECT_NAME":"STARLINK-3350","MEAN_ELEMENT_THEORY":"SGP4","TLE_LINE1":"1 51105U 22005B   22315.46700300  .00017557  00000-0  11180-2 0  9992","RCS_SIZE":"LARGE","ECCENTRICITY":"0.00022230","RA_OF_ASC_NODE":"339.9910","BSTAR":"0.00111800000000","FILE":"3651496","PERIAPSIS":"538.162","TIME_SYSTEM":"UTC","MEAN_MOTION":"15.08854853","COUNTRY_CODE":"US","DECAY_DATE":null,"INCLINATION":"53.2170","NORAD_CAT_ID":"51105","GP_ID":"217435715","REF_FRAME":"TEME","CLASSIFICATION_TYPE":"U","SEMIMAJOR_AXIS":"6917.835","MEAN_MOTION_DDOT":"0.0000000000000","EPOCH":"2022-11-11T11:12:29.059200","SITE":"AFETR","APOAPSIS":"541.238","OBJECT_ID":"2022-005B","ARG_OF_PERICENTER":"45.2863","OBJECT_TYPE":"PAYLOAD","LAUNCH_DATE":"2022-01-19","MEAN_MOTION_DOT":"0.00017557","REV_AT_EPOCH":"4557","TLE_LINE2":"2 51105  53.2170 339.9910 0002223  45.2863 314.8310 15.08854853 45571"},{"APOAPSIS":"541.784","SITE":"AFETR","OBJECT_TYPE":"PAYLOAD","ARG_OF_PERICENTER":"22.2606","OBJECT_ID":"2022-005C","CLASSIFICATION_TYPE":"U","REF_FRAME":"TEME","EPOCH":"2022-11-11T13:51:29.424096","MEAN_MOTION_DDOT":"0.0000000000000","SEMIMAJOR_AXIS":"6917.849","REV_AT_EPOCH":"4558","TLE_LINE2":"2 51106  53.2172 339.4714 0002991  22.2606 337.8516 15.08850116 45585","MEAN_MOTION_DOT":"0.00017766","LAUNCH_DATE":"2022-01-19","TLE_LINE1":"1 51106U 22005C   22315.57742389  .00017766  00000-0  11312-2 0  9997","MEAN_ELEMENT_THEORY":"SGP4","OBJECT_NAME":"STARLINK-3176","RA_OF_ASC_NODE":"339.4714","ECCENTRICITY":"0.00029910","RCS_SIZE":"LARGE","EPHEMERIS_TYPE":"0","CENTER_NAME":"EARTH","PERIOD":"95.437","MEAN_ANOMALY":"337.8516","ELEMENT_SET_NO":"999","DECAY_DATE":null,"INCLINATION":"53.2172","COUNTRY_CODE":"US","GP_ID":"217492282","NORAD_CAT_ID":"51106","FILE":"3651775","BSTAR":"0.00113120000000","MEAN_MOTION":"15.08850116","PERIAPSIS":"537.645","TIME_SYSTEM":"UTC"},{"INCLINATION":"53.2151","DECAY_DATE":null,"COUNTRY_CODE":"US","GP_ID":"217434714","NORAD_CAT_ID":"51107","BSTAR":"0.00073028000000","FILE":"3651496","PERIAPSIS":"538.023","MEAN_MOTION":"15.08828257","TIME_SYSTEM":"UTC","TLE_LINE1":"1 51107U 22005D   22315.51121065  .00011350  00000-0  73028-3 0  9990","MEAN_ELEMENT_THEORY":"SGP4","OBJECT_NAME":"STARLINK-3368","RA_OF_ASC_NODE":"349.7939","ECCENTRICITY":"0.00025420","RCS_SIZE":"LARGE","CENTER_NAME":"EARTH","EPHEMERIS_TYPE":"0","PERIOD":"95.438","MEAN_ANOMALY":"326.5587","ELEMENT_SET_NO":"999","REV_AT_EPOCH":"4544","TLE_LINE2":"2 51107  53.2151 349.7939 0002542  33.5566 326.5587 15.08828257 45447","MEAN_MOTION_DOT":"0.00011350","LAUNCH_DATE":"2022-01-19","APOAPSIS":"541.540","SITE":"AFETR","OBJECT_TYPE":"PAYLOAD","ARG_OF_PERICENTER":"33.5566","OBJECT_ID":"2022-005D","CLASSIFICATION_TYPE":"U","REF_FRAME":"TEME","EPOCH":"2022-11-11T12:16:08.600160","MEAN_MOTION_DDOT":"0.0000000000000","SEMIMAJOR_AXIS":"6917.916"}];
